#dP2024  8 25 18  0  0.00000000      96 __u+U IGS20 EXT  IAC
## 2329  64800.00000000   900.00000000 60547 0.7500000000000
+   53   G01G02G03G04G05G06G07G08G09G10G11G12G13G14G15G16G17
+        G18G19G20G21G22G23G24G25G26G27G28G29G30G31G32R02R03
+        R04R05R07R08R09R11R12R14R15R16R17R18R19R20R21R22R24
+        R25R26  0  0  0  0  0  0  0  0  0  0  0  0  0  0  0
+          0  0  0  0  0  0  0  0  0  0  0  0  0  0  0  0  0
++        11  7  8  8  7  8  7  7  8  6  7  7  9  7  8  9  8
++         9  7  8  7  7  6  8  7  8  9  9  8  7  8  6  7  9
++         8  8 10  8  9  8  9  7  8  9  6  8 10 10  8  9  7
++         6  6  0  0  0  0  0  0  0  0  0  0  0  0  0  0  0
++         0  0  0  0  0  0  0  0  0  0  0  0  0  0  0  0  0
%c M  cc GPS ccc cccc cccc cccc cccc ccccc ccccc ccccc ccccc
%c cc cc ccc ccc cccc cccc cccc cccc ccccc ccccc ccccc ccccc
%f  0.0000000  0.000000000  0.00000000000  0.000000000000000
%f  0.0000000  0.000000000  0.00000000000  0.000000000000000
%i    0    0    0    0      0      0      0      0         0
%i    0    0    0    0      0      0      0      0         0
/* IAC                                ULTRA-RAPID PREDICTION
/* S/V CLOCKS ARE ALIGNED TO GNSS TIME                      
/* G:C1WC2W R:C1PC2P E:C1XC5X C:C2IC6I J:C1CC2S             
/* PCV:IGS20_2317 OL/AL:FES2004  NONE     YN ORB:CoN CLK:CoN
*  2024 08 26 15  0  0.00000000
PG01 -22252.961199  -4571.575118  13648.647384    212.448656
PG02  -6124.093395  17718.162039 -18212.469407   -371.096618
PG03   7300.464772  19285.922634 -16970.460050    514.798834
PG04   -313.515000  26050.685347   4780.387182    431.685903
PG05   8786.682555 -12020.413790  21810.986397   -184.503238
PG06  24628.437692  -3948.648100  -9216.148811     73.152776
PG07  12938.726421  10774.791838  21157.989485    -46.081592
PG08  -6603.013511  24512.765736   6896.062953    330.091993
PG09   8291.610644  20809.378992  14135.309459    330.161310
PG10 -23195.138626  -9250.722536  -9313.761307   -105.538266
PG11  22802.081993 -12616.929124   4981.331689   -726.833857
PG12  -2730.943509 -19130.474388 -18519.629990   -533.328473
PG13  13481.223032 -18939.149736  12398.815419    673.030725
PG14  23003.632609  12124.201482  -5924.058230    481.297009
PG15   3179.778639 -25435.164509   6082.539995    197.030473
PG16 -13698.874062   7675.868707  21142.967603   -198.038243
PG17  13888.518247   6153.259536 -21353.286105    644.602691
PG18 -13132.821342  -9860.370297  20938.814006   -649.150370
PG19  15661.552036  -2849.491359 -21350.494043    529.777807
PG20  18073.253384  -5873.059204  18558.644905    371.280303
PG21 -11151.818848  18108.818418 -14793.522554    102.896016
PG22  21675.132791   6701.631177 -13150.591719    -55.403442
PG23 -20757.190705 -16519.421494   2853.518204    306.084580
PG24   7182.192450 -18920.981434 -17428.618486   -486.675905
PG25 -14431.923502 -19716.665383 -11066.349397    499.462074
PG26 -22251.312015   -757.743835  14596.892452     92.533306
PG27 -12544.089333  16995.810472  15544.931847    -33.447313
PG28 -23871.445815   2804.399658 -11316.848341   -387.541811
PG29  -4060.144088 -23303.578995  11909.610503   -581.775790
PG30  21494.803878   3010.786134  15633.760832   -332.971097
PG31 -24724.480108  10272.257360   -147.901299   -225.445232
PG32 -14647.373128  -4310.258859 -21533.798333   -602.749283
PR02  -3244.258937 -24519.682979   6422.832764    -24.328703
PR03 -10787.310006 -20383.538286 -10928.283537    106.339970
PR04 -11848.205378  -5429.263667 -21907.566813    251.737950
PR05  -6890.138453  12472.222643 -21145.394361    136.720110
PR07  10951.423604  19890.450776  11604.421564     89.593008
PR08  11986.930709   4952.387425  22011.504498     -6.389659
PR09   2442.001818  11976.819869  22421.868836    205.592762
PR11  24877.950689   5239.548312  -2186.289490     13.624389
PR12  16245.923253  -5169.759836 -18939.907076     44.090182
PR14 -18775.920038 -11254.704662 -13057.892239     26.853429
PR15 -24794.011346  -4493.272939   3960.037581     76.469552
PR16 -16322.668962   5051.762610  18938.847546     28.595466
PR17  -6867.548261  -8144.716507  23183.692693    116.605917
PR18 -17295.664755   5425.031286  17943.999209    158.946343
PR19 -19984.187801  14962.746142   5274.831300   -289.040671
PR20  -9723.082732  17970.666797 -15242.610378   -118.214912
PR21   6155.854797   8685.224653 -23180.938259   -129.202727
PR22  18139.432767  -5797.951373 -16946.349645     61.295321
PR24   8225.851821 -18488.473423  15528.968202    -69.426822
PR25   6984.567908   8418.351506 -23038.152401   -100.992569
PR26  12193.767561   6541.292891  21448.432969     12.410746
*  2024 08 26 15 15  0.00000000
PG01 -23339.302558  -5591.761571  11351.551672    212.440870
PG02  -7998.372310  18637.575190 -16504.198431   -371.089642
PG03   5591.463775  18239.474449 -18695.651165    514.811748
PG04   -602.168296  26406.378322   1940.769852    431.692496
PG05  10926.527727 -10695.825499  21540.692704   -184.504316
PG06  23600.057210  -3307.569358 -11775.387463     73.130276
PG07  10848.013756  11829.690752  21735.747607    -46.076805
PG08  -6861.734532  23536.372227   9541.053673    330.104549
PG09   8008.673796  22300.369362  11850.176719    330.175487
PG10 -23876.300022  -9898.771892  -6624.152185   -105.548657
PG11  23269.599818 -12555.416431   2149.214060   -726.838423
PG12   -972.617978 -17899.723998 -19891.733745   -533.331055
PG13  13335.448582 -17345.210908  14664.310864    673.032689
PG14  23269.731216  12653.550481  -3177.040745    481.304821
PG15   3582.193923 -24549.888619   8721.571169    197.034423
PG16 -15560.241622   6097.891792  20406.918403   -198.028967
PG17  13499.380099   8621.388386 -20737.345381    644.593514
PG18 -10951.297983 -10919.751036  21637.268231   -649.152880
PG19  15288.527401   -436.302457 -21841.781049    529.782387
PG20  19859.915062  -4905.761470  16923.037672    371.279957
PG21 -12716.879206  18740.429753 -12547.417331    102.895447
PG22  22634.195037   7799.071188 -10762.975302    -55.407058
PG23 -20254.782567 -16412.101226   5680.363955    306.092303
PG24   8866.600989 -19694.544370 -15622.613701   -486.676167
PG25 -13187.851362 -19161.913327 -13395.200133    499.462223
PG26 -23496.757103  -1737.041130  12459.823168     92.526158
PG27 -12616.553427  15037.257713  17399.211755    -33.447654
PG28 -22704.794282   1956.898893 -13656.044800   -387.554893
PG29  -3673.385238 -24487.156173   9394.500270   -581.773710
PG30  19902.906723   3996.738502  17411.539131   -332.964812
PG31 -24687.568116   9988.995281  -2961.406323   -225.444825
PG32 -14458.332992  -6781.818607 -21041.935790   -602.746486
PR02  -3130.458636 -23539.499499   9446.005142    -24.328886
PR03 -11274.323707 -21460.793615  -7996.534711    106.340334
PR04 -12656.652116  -7936.196586 -20657.834463    251.739489
PR05  -7578.898604   9880.006497 -22252.695031    136.721033
PR07  11452.760294  21044.993836   8711.082218     89.593660
PR08  12808.602086   7452.615597  20805.251471     -6.389621
PR09   -286.678061  11427.922687  22829.023960    205.594744
PR11  24981.163256   5112.226324   1022.413627     13.623374
PR12  18429.666714  -4761.065873 -16945.399717     44.090566
PR14 -17066.156930 -10793.939385 -15553.521328     26.853473
PR15 -25103.920829  -4432.971667    773.569118     76.469200
PR16 -18502.372376   4666.654076  16921.749067     28.595753
PR17  -4928.870349 -10221.662291  22847.473785    116.608689
PR18 -15588.365705   3832.811379  19825.239254    158.948101
PR19 -19231.434518  14527.416164   8376.291793   -289.041969
PR20 -10843.014680  19295.883798 -12645.239692   -118.215368
PR21   4208.921059  10749.125469 -22750.153284   -129.205503
PR22  16491.650446  -4306.649733 -18952.337929     61.288039
PR24   9346.560487 -19849.481281  13005.076044    -69.428247
PR25   4975.806253  10406.725999 -22747.814653   -100.992935
PR26  13020.967135   8961.842996  20041.958720     12.415247
EOF
